INNOSAT 3 (RS92S0)      
1 64894U 25155U   26177.70912794  .00038778  00000+0  83501-3 0  9993
2 64894  97.4480 149.4366 0007755 129.5130 230.6805 15.44485499 82437
KNACKSAT-2              
1 67683U 98067XZ  26177.44486485  .00049509  00000+0  58452-3 0  9999
2 67683  51.6280 247.8833 0008675 257.0459 102.9566 15.60782463 21720
